[{"OBJECT_NAME":"YAOGAN-36 02A","OBJECT_ID":"2022-133A","EPOCH":"2026-03-10T00:04:36.049728","MEAN_MOTION":15.23118612,"ECCENTRICITY":0.00301484,"INCLINATION":35.0077,"RA_OF_ASC_NODE":23.5078,"ARG_OF_PERICENTER":29.898,"MEAN_ANOMALY":330.345,"EPHEMERIS_TYPE":0,"CLASSIFICATION_TYPE":"U","NORAD_CAT_ID":54042,"ELEMENT_SET_NO":999,"REV_AT_EPOCH":18962,"BSTAR":0.00070143583,"MEAN_MOTION_DOT":0.00017174,"MEAN_MOTION_DDOT":0},{"OBJECT_NAME":"STARLINK-33555","OBJECT_ID":"2024-220S","EPOCH":"2026-03-09T09:20:26.941344","MEAN_MOTION":15.27602636,"ECCENTRICITY":0.00014517,"INCLINATION":42.9997,"RA_OF_ASC_NODE":207.3737,"ARG_OF_PERICENTER":264.8073,"MEAN_ANOMALY":95.2613,"EPHEMERIS_TYPE":0,"CLASSIFICATION_TYPE":"U","NORAD_CAT_ID":62104,"ELEMENT_SET_NO":999,"REV_AT_EPOCH":7311,"BSTAR":0.0013058826,"MEAN_MOTION_DOT":0.00035873,"MEAN_MOTION_DDOT":0}]
